STARLINK-5892           
1 55954U 23037AS  26068.88259848 -.00000729  00000+0 -53282-4 0  9990
2 55954  69.9982 263.9038 0002909 272.9824  87.1002 14.98326028164505
SHIYAN-24C 02           
1 58651U 23206B   26068.89175597  .00002770  00000+0  23935-3 0  9991
2 58651  97.3985  41.8071 0003465  80.6641 279.4974 14.97980163120443
