[{"OBJECT_NAME":"STARLINK-5892","OBJECT_ID":"2023-037AS","EPOCH":"2026-03-09T21:10:56.509536","MEAN_MOTION":14.98326028,"ECCENTRICITY":0.00029087,"INCLINATION":69.9982,"RA_OF_ASC_NODE":263.9038,"ARG_OF_PERICENTER":272.9824,"MEAN_ANOMALY":87.1002,"EPHEMERIS_TYPE":0,"CLASSIFICATION_TYPE":"U","NORAD_CAT_ID":55954,"ELEMENT_SET_NO":999,"REV_AT_EPOCH":16450,"BSTAR":-5.3282254e-5,"MEAN_MOTION_DOT":-7.29e-6,"MEAN_MOTION_DDOT":0},{"OBJECT_NAME":"SHIYAN-24C 02","OBJECT_ID":"2023-206B","EPOCH":"2026-03-09T21:24:07.715808","MEAN_MOTION":14.97980163,"ECCENTRICITY":0.0003465,"INCLINATION":97.3985,"RA_OF_ASC_NODE":41.8071,"ARG_OF_PERICENTER":80.6641,"MEAN_ANOMALY":279.4974,"EPHEMERIS_TYPE":0,"CLASSIFICATION_TYPE":"U","NORAD_CAT_ID":58651,"ELEMENT_SET_NO":999,"REV_AT_EPOCH":12044,"BSTAR":0.00023935,"MEAN_MOTION_DOT":2.77e-5,"MEAN_MOTION_DDOT":0}]
